[{"OBJECT_NAME":"STARLINK-1466","OBJECT_ID":"2020-038C","EPOCH":"2021-09-10T21:05:17.408544","MEAN_MOTION":15.0639353,"ECCENTRICITY":0.0001775,"INCLINATION":53.0546,"RA_OF_ASC_NODE":42.5064,"ARG_OF_PERICENTER":99.565,"MEAN_ANOMALY":260.554,"EPHEMERIS_TYPE":0,"CLASSIFICATION_TYPE":"U","NORAD_CAT_ID":45732,"ELEMENT_SET_NO":999,"REV_AT_EPOCH":6888,"BSTAR":7.0264e-5,"MEAN_MOTION_DOT":7.65e-6,"MEAN_MOTION_DDOT":0},{"OBJECT_NAME":"STARLINK-1467","OBJECT_ID":"2020-038D","EPOCH":"2021-09-10T21:15:53.466336","MEAN_MOTION":15.06396865,"ECCENTRICITY":0.0001545,"INCLINATION":53.0552,"RA_OF_ASC_NODE":42.4786,"ARG_OF_PERICENTER":107.1885,"MEAN_ANOMALY":252.9273,"EPHEMERIS_TYPE":0,"CLASSIFICATION_TYPE":"U","NORAD_CAT_ID":45733,"ELEMENT_SET_NO":999,"REV_AT_EPOCH":7000,"BSTAR":4.7842e-6,"MEAN_MOTION_DOT":-2.1e-6,"MEAN_MOTION_DDOT":0},{"OBJECT_NAME":"STARLINK-1468","OBJECT_ID":"2020-038E","EPOCH":"2021-09-10T19:13:49.119744","MEAN_MOTION":15.06389132,"ECCENTRICITY":0.0001852,"INCLINATION":53.0547,"RA_OF_ASC_NODE":42.8534,"ARG_OF_PERICENTER":103.5933,"MEAN_ANOMALY":256.5263,"EPHEMERIS_TYPE":0,"CLASSIFICATION_TYPE":"U","NORAD_CAT_ID":45734,"ELEMENT_SET_NO":999,"REV_AT_EPOCH":6887,"BSTAR":-2.7053e-5,"MEAN_MOTION_DOT":-6.84e-6,"MEAN_MOTION_DDOT":0},{"OBJECT_NAME":"STARLINK-1471","OBJECT_ID":"2020-038F","EPOCH":"2021-09-10T20:06:53.472096","MEAN_MOTION":15.06393387,"ECCENTRICITY":0.0001616,"INCLINATION":53.0556,"RA_OF_ASC_NODE":42.6907,"ARG_OF_PERICENTER":116.7012,"MEAN_ANOMALY":243.4143,"EPHEMERIS_TYPE":0,"CLASSIFICATION_TYPE":"U","NORAD_CAT_ID":45735,"ELEMENT_SET_NO":999,"REV_AT_EPOCH":6887,"BSTAR":-2.9332e-5,"MEAN_MOTION_DOT":-7.18e-6,"MEAN_MOTION_DDOT":0},{"OBJECT_NAME":"STARLINK-1472","OBJECT_ID":"2020-038G","EPOCH":"2021-09-10T17:59:30.211872","MEAN_MOTION":15.06398414,"ECCENTRICITY":0.0001636,"INCLINATION":53.0549,"RA_OF_ASC_NODE":43.0876,"ARG_OF_PERICENTER":114.3709,"MEAN_ANOMALY":245.7451,"EPHEMERIS_TYPE":0,"CLASSIFICATION_TYPE":"U","NORAD_CAT_ID":45736,"ELEMENT_SET_NO":999,"REV_AT_EPOCH":6886,"BSTAR":1.1341e-5,"MEAN_MOTION_DOT":-1.13e-6,"MEAN_MOTION_DDOT":0},{"OBJECT_NAME":"STARLINK-1474","OBJECT_ID":"2020-038J","EPOCH":"2021-09-10T19:50:58.151616","MEAN_MOTION":15.0639886,"ECCENTRICITY":0.0001774,"INCLINATION":53.0563,"RA_OF_ASC_NODE":42.7509,"ARG_OF_PERICENTER":104.6215,"MEAN_ANOMALY":255.497,"EPHEMERIS_TYPE":0,"CLASSIFICATION_TYPE":"U","NORAD_CAT_ID":45738,"ELEMENT_SET_NO":999,"REV_AT_EPOCH":6887,"BSTAR":0.00013845,"MEAN_MOTION_DOT":1.781e-5,"MEAN_MOTION_DDOT":0},{"OBJECT_NAME":"STARLINK-1475","OBJECT_ID":"2020-038K","EPOCH":"2021-09-10T18:36:39.499488","MEAN_MOTION":15.06394011,"ECCENTRICITY":9.64e-5,"INCLINATION":53.0557,"RA_OF_ASC_NODE":2.9703,"ARG_OF_PERICENTER":129.682,"MEAN_ANOMALY":230.4254,"EPHEMERIS_TYPE":0,"CLASSIFICATION_TYPE":"U","NORAD_CAT_ID":45739,"ELEMENT_SET_NO":999,"REV_AT_EPOCH":6942,"BSTAR":9.7015e-6,"MEAN_MOTION_DOT":-1.37e-6,"MEAN_MOTION_DDOT":0},{"OBJECT_NAME":"STARLINK-1479","OBJECT_ID":"2020-038L","EPOCH":"2021-09-10T16:50:29.887584","MEAN_MOTION":15.06399889,"ECCENTRICITY":0.0001449,"INCLINATION":53.0545,"RA_OF_ASC_NODE":43.3106,"ARG_OF_PERICENTER":93.7411,"MEAN_ANOMALY":266.3744,"EPHEMERIS_TYPE":0,"CLASSIFICATION_TYPE":"U","NORAD_CAT_ID":45740,"ELEMENT_SET_NO":999,"REV_AT_EPOCH":6885,"BSTAR":-1.7412e-5,"MEAN_MOTION_DOT":-5.41e-6,"MEAN_MOTION_DDOT":0},{"OBJECT_NAME":"STARLINK-1480","OBJECT_ID":"2020-038M","EPOCH":"2021-09-10T19:19:06.917952","MEAN_MOTION":15.06402318,"ECCENTRICITY":0.0001535,"INCLINATION":53.0556,"RA_OF_ASC_NODE":42.844,"ARG_OF_PERICENTER":94.3152,"MEAN_ANOMALY":265.8013,"EPHEMERIS_TYPE":0,"CLASSIFICATION_TYPE":"U","NORAD_CAT_ID":45741,"ELEMENT_SET_NO":999,"REV_AT_EPOCH":6888,"BSTAR":0.00010901,"MEAN_MOTION_DOT":1.343e-5,"MEAN_MOTION_DDOT":0},{"OBJECT_NAME":"STARLINK-1481","OBJECT_ID":"2020-038N","EPOCH":"2021-09-10T20:44:03.024960","MEAN_MOTION":15.06392292,"ECCENTRICITY":0.0001481,"INCLINATION":53.055,"RA_OF_ASC_NODE":42.5758,"ARG_OF_PERICENTER":116.7831,"MEAN_ANOMALY":243.331,"EPHEMERIS_TYPE":0,"CLASSIFICATION_TYPE":"U","NORAD_CAT_ID":45742,"ELEMENT_SET_NO":999,"REV_AT_EPOCH":6887,"BSTAR":-1.9671e-5,"MEAN_MOTION_DOT":-5.74e-6,"MEAN_MOTION_DDOT":0},{"OBJECT_NAME":"STARLINK-1483","OBJECT_ID":"2020-038P","EPOCH":"2021-09-10T21:31:48.940608","MEAN_MOTION":15.06393009,"ECCENTRICITY":0.0001495,"INCLINATION":53.0555,"RA_OF_ASC_NODE":42.4288,"ARG_OF_PERICENTER":90.1086,"MEAN_ANOMALY":270.0074,"EPHEMERIS_TYPE":0,"CLASSIFICATION_TYPE":"U","NORAD_CAT_ID":45743,"ELEMENT_SET_NO":999,"REV_AT_EPOCH":6985,"BSTAR":1.3779e-5,"MEAN_MOTION_DOT":-7.6e-7,"MEAN_MOTION_DDOT":0},{"OBJECT_NAME":"STARLINK-1500","OBJECT_ID":"2020-038Q","EPOCH":"2021-09-10T20:28:07.546368","MEAN_MOTION":15.06393074,"ECCENTRICITY":0.0001519,"INCLINATION":53.0559,"RA_OF_ASC_NODE":42.6313,"ARG_OF_PERICENTER":98.8843,"MEAN_ANOMALY":261.2318,"EPHEMERIS_TYPE":0,"CLASSIFICATION_TYPE":"U","NORAD_CAT_ID":45744,"ELEMENT_SET_NO":999,"REV_AT_EPOCH":6888,"BSTAR":-1.1382e-5,"MEAN_MOTION_DOT":-4.51e-6,"MEAN_MOTION_DDOT":0},{"OBJECT_NAME":"STARLINK-1503","OBJECT_ID":"2020-038R","EPOCH":"2021-09-10T21:47:43.753056","MEAN_MOTION":15.06399987,"ECCENTRICITY":0.0001417,"INCLINATION":53.0557,"RA_OF_ASC_NODE":42.3798,"ARG_OF_PERICENTER":108.1219,"MEAN_ANOMALY":251.9925,"EPHEMERIS_TYPE":0,"CLASSIFICATION_TYPE":"U","NORAD_CAT_ID":45745,"ELEMENT_SET_NO":999,"REV_AT_EPOCH":6981,"BSTAR":0.00012143,"MEAN_MOTION_DOT":1.528e-5,"MEAN_MOTION_DDOT":0},{"OBJECT_NAME":"STARLINK-1504","OBJECT_ID":"2020-038S","EPOCH":"2021-09-10T18:57:53.466624","MEAN_MOTION":15.06394725,"ECCENTRICITY":0.0001329,"INCLINATION":53.0563,"RA_OF_ASC_NODE":42.9159,"ARG_OF_PERICENTER":109.0642,"MEAN_ANOMALY":251.0491,"EPHEMERIS_TYPE":0,"CLASSIFICATION_TYPE":"U","NORAD_CAT_ID":45746,"ELEMENT_SET_NO":999,"REV_AT_EPOCH":6886,"BSTAR":-9.567e-7,"MEAN_MOTION_DOT":-2.96e-6,"MEAN_MOTION_DDOT":0},{"OBJECT_NAME":"STARLINK-1506","OBJECT_ID":"2020-038T","EPOCH":"2021-09-10T20:38:44.261664","MEAN_MOTION":15.06398394,"ECCENTRICITY":0.0001645,"INCLINATION":53.0546,"RA_OF_ASC_NODE":42.5918,"ARG_OF_PERICENTER":114.2805,"MEAN_ANOMALY":245.8356,"EPHEMERIS_TYPE":0,"CLASSIFICATION_TYPE":"U","NORAD_CAT_ID":45747,"ELEMENT_SET_NO":999,"REV_AT_EPOCH":6888,"BSTAR":6.9928e-5,"MEAN_MOTION_DOT":7.6e-6,"MEAN_MOTION_DDOT":0},{"OBJECT_NAME":"STARLINK-1507","OBJECT_ID":"2020-038U","EPOCH":"2021-09-10T21:53:02.176800","MEAN_MOTION":15.06412269,"ECCENTRICITY":0.0001561,"INCLINATION":53.0545,"RA_OF_ASC_NODE":42.3707,"ARG_OF_PERICENTER":104.4907,"MEAN_ANOMALY":255.6255,"EPHEMERIS_TYPE":0,"CLASSIFICATION_TYPE":"U","NORAD_CAT_ID":45748,"ELEMENT_SET_NO":999,"REV_AT_EPOCH":6982,"BSTAR":-0.0002021,"MEAN_MOTION_DOT":-3.292e-5,"MEAN_MOTION_DDOT":0},{"OBJECT_NAME":"STARLINK-1391","OBJECT_ID":"2020-038W","EPOCH":"2021-09-10T21:02:37.127904","MEAN_MOTION":15.06399555,"ECCENTRICITY":0.0001391,"INCLINATION":53.0573,"RA_OF_ASC_NODE":22.5163,"ARG_OF_PERICENTER":112.6213,"MEAN_ANOMALY":247.4923,"EPHEMERIS_TYPE":0,"CLASSIFICATION_TYPE":"U","NORAD_CAT_ID":45750,"ELEMENT_SET_NO":999,"REV_AT_EPOCH":7028,"BSTAR":8.9272e-6,"MEAN_MOTION_DOT":-1.48e-6,"MEAN_MOTION_DDOT":0}]
