STARLINK-1466           
1 45732U 20038C   21253.87867371  .00000765  00000-0  70264-4 0  9995
2 45732  53.0546  42.5064 0001775  99.5650 260.5540 15.06393530 68888
STARLINK-1467           
1 45733U 20038D   21253.88603549 -.00000210  00000-0  47842-5 0  9995
2 45733  53.0552  42.4786 0001545 107.1885 252.9273 15.06396865 70006
STARLINK-1468           
1 45734U 20038E   21253.80126296 -.00000684  00000-0 -27053-4 0  9994
2 45734  53.0547  42.8534 0001852 103.5933 256.5263 15.06389132 68871
STARLINK-1471           
1 45735U 20038F   21253.83811889 -.00000718  00000-0 -29332-4 0  9997
2 45735  53.0556  42.6907 0001616 116.7012 243.4143 15.06393387 68875
STARLINK-1472           
1 45736U 20038G   21253.74965523 -.00000113  00000-0  11341-4 0  9992
2 45736  53.0549  43.0876 0001636 114.3709 245.7451 15.06398414 68869
STARLINK-1474           
1 45738U 20038J   21253.82706194  .00001781  00000-0  13845-3 0  9991
2 45738  53.0563  42.7509 0001774 104.6215 255.4970 15.06398860 68873
STARLINK-1475           
1 45739U 20038K   21253.77545717 -.00000137  00000-0  97015-5 0  9996
2 45739  53.0557   2.9703 0000964 129.6820 230.4254 15.06394011 69424
STARLINK-1479           
1 45740U 20038L   21253.70173481 -.00000541  00000-0 -17412-4 0  9998
2 45740  53.0545  43.3106 0001449  93.7411 266.3744 15.06399889 68851
STARLINK-1480           
1 45741U 20038M   21253.80494118  .00001343  00000-0  10901-3 0  9997
2 45741  53.0556  42.8440 0001535  94.3152 265.8013 15.06402318 68882
STARLINK-1481           
1 45742U 20038N   21253.86392390 -.00000574  00000-0 -19671-4 0  9994
2 45742  53.0550  42.5758 0001481 116.7831 243.3310 15.06392292 68878
STARLINK-1483           
1 45743U 20038P   21253.89709422 -.00000076  00000-0  13779-4 0  9995
2 45743  53.0555  42.4288 0001495  90.1086 270.0074 15.06393009 69853
STARLINK-1500           
1 45744U 20038Q   21253.85286512 -.00000451  00000-0 -11382-4 0  9998
2 45744  53.0559  42.6313 0001519  98.8843 261.2318 15.06393074 68889
STARLINK-1503           
1 45745U 20038R   21253.90814529  .00001528  00000-0  12143-3 0  9999
2 45745  53.0557  42.3798 0001417 108.1219 251.9925 15.06399987 69814
STARLINK-1504           
1 45746U 20038S   21253.79020216 -.00000296  00000-0 -95670-6 0  9991
2 45746  53.0563  42.9159 0001329 109.0642 251.0491 15.06394725 68869
STARLINK-1506           
1 45747U 20038T   21253.86023451  .00000760  00000-0  69928-4 0  9993
2 45747  53.0546  42.5918 0001645 114.2805 245.8356 15.06398394 68889
STARLINK-1507           
1 45748U 20038U   21253.91183075 -.00003292  00000-0 -20210-3 0  9994
2 45748  53.0545  42.3707 0001561 104.4907 255.6255 15.06412269 69824
STARLINK-1391           
1 45750U 20038W   21253.87681861 -.00000148  00000-0  89272-5 0  9999
2 45750  53.0573  22.5163 0001391 112.6213 247.4923 15.06399555 70281
